#cP2023  5 11  0  0  0.00000000      96 ORBIT IGS20 HLM  IGS
## 2261 345600.00000000   900.00000000 60075 0.0000000000000
+   32   G01G02G03G04G05G06G07G08G09G10G11G12G13G14G15G16G17
+        G18G19G20G21G22G23G24G25G26G27G28G29G30G31G32  0  0
+          0  0  0  0  0  0  0  0  0  0  0  0  0  0  0  0  0
+          0  0  0  0  0  0  0  0  0  0  0  0  0  0  0  0  0
+          0  0  0  0  0  0  0  0  0  0  0  0  0  0  0  0  0
++         2  2  3  2  2  2  2  2  2  2  2  2  2  2  2  3  2
++         3  2  2  2  2  2  2  2  2  2  2  2  2  2  2  0  0
++         0  0  0  0  0  0  0  0  0  0  0  0  0  0  0  0  0
++         0  0  0  0  0  0  0  0  0  0  0  0  0  0  0  0  0
++         0  0  0  0  0  0  0  0  0  0  0  0  0  0  0  0  0
%c G  cc GPS ccc cccc cccc cccc cccc ccccc ccccc ccccc ccccc
%c cc cc ccc ccc cccc cccc cccc cccc ccccc ccccc ccccc ccccc
%f  1.2500000  1.025000000  0.00000000000  0.000000000000000
%f  0.0000000  0.000000000  0.00000000000  0.000000000000000
%i    0    0    0    0      0      0      0      0         0
%i    0    0    0    0      0      0      0      0         0
/* RAPID ORBIT COMBINATION FROM WEIGHTED AVERAGE OF:        
/* cod emr esa gfz grg jpl ngs sio usn whu                  
/* REFERENCED TO IGS TIME (IGST) AND TO WEIGHTED MEAN POLE: 
/* PCV:IGS20_2233 OL/AL:FES2014b NONE     Y  ORB:CMB CLK:CMB
*  2023  5 11 22 30  0.00000000
PG01   4032.841148  14206.917048 -22419.777308    186.063740  5  5  7 116       
PG02 -24930.854748   8663.331084  -1738.953270   -597.176427  6  4  5  84       
PG03  11257.508026  22194.812629  -9580.454949   -306.024035  7  6  4  86       
PG04   1960.859092  22586.475537  13757.034354     39.036641  3  8  8  96       
PG05   2920.545783 -16852.830212  20114.276307   -126.829857  7  6  2  90       
PG06  26109.934407  -5155.964456   -161.024217    588.104653  6  5  5  91       
PG07  19077.743443   8522.418462  17129.647670    180.547025  7  5  5  67       
PG08  -5814.941063  25587.019397  -2427.956793   -121.964006  5  3  8  97       
PG09  10151.920067  14528.672572  19697.134552   -160.944588  5  5  7  85       
PG10 -20335.616983  -6770.540396 -15709.394186    -36.530229  6  3  4 101       
PG11  19232.582087 -12449.509599  13414.603795   -193.445332  7  7  6  89       
PG12  -7397.513204 -22792.261475 -11826.306572   -374.858075  9  8  7 102       
PG13  13353.016838 -22598.440938   3071.500376    518.589262  8  6  6 115       
PG14  20791.181916   9514.904775 -13627.888009     53.686953  9  6  5  98       
PG15   2145.050481 -26175.178667  -3299.967446     38.672255  7  5  5  85       
PG16  -7758.285313  13802.290070  20942.054000   -501.826106  6 10  8  97       
PG17  15772.994148  -1225.809841 -20927.406680    714.427287  5  6  6 100       
PG18 -21410.863145  -6019.993320  14631.537772   -262.297756 10 10 10 104       
PG19  17462.489317  -9618.656014 -17623.541547    315.613592  5  6  6  87       
PG20  10856.794373 -11130.218436  21561.944504    434.101733  6  5  5 120       
PG21  -5049.015197  15977.717665 -19830.561411    153.867512  3  5  3 110       
PG22 -16895.678535  13567.531780 -14797.150781    479.697167  8  7  7  99       
PG23 -20537.401979 -16000.696822  -5647.099572     23.442443  8  8  6  92       
PG24    -60.578203 -16380.587384 -21208.941207   -185.216993  7  3  3  69       
PG25 -16853.973498 -20629.569462  -2220.302418    442.134672  6  9  7  93       
PG26 -17071.471610   3947.686871  19930.964118    240.908484  6  5  7  99       
PG27 -12748.947951  21519.996510   8034.651101     39.528256  4  6  8 102       
PG28 -26019.921721   4815.211743  -2278.476446     76.625549  8  5  4  93       
PG29  -6324.215765 -17723.518023  18653.880165   -599.064113  6  7  5 104       
PG30  25507.046881    825.403147   7946.542970   -517.721617  9  5  6  87       
PG31 -23657.108670   9903.932091   7577.542782   -215.911282  6  5  6  77       
PG32 -16300.060258   4384.917170 -20278.770183   -474.165681  7  6  4 111       
*  2023  5 11 22 45  0.00000000
PG01   1609.421344  14740.446148 -22348.717511    186.061122  5  5  6 115       
PG02 -25097.399115   8455.881144   1140.864716   -597.173047  7  5  5  90       
PG03  10295.992298  21431.475928 -12092.817792   -306.014430  7  6  4  84       
PG04   1310.138038  23891.025413  11421.151181     39.045338  4  8  8  93       
PG05   4710.497435 -15265.926957  21024.013574   -126.831144  6  7  2  96       
PG06  25963.326209  -4950.812997  -3058.815905    588.104501  7  4  5  90       
PG07  17205.688523   9107.473823  18734.651471    180.538727  7  5  5  73       
PG08  -6124.407305  25616.920755    443.973973   -121.965344  6  3  8  98       
PG09   9460.096728  16613.958555  18348.066869   -160.937073  5  5  6  81       
PG10 -21407.366567  -8083.167325 -13568.856541    -36.531877  6  3  5 105       
PG11  20644.425127 -12514.720777  11041.442712   -193.457717  7  7  6  75       
PG12  -6335.139700 -21801.993436 -14132.032381   -374.862256 10  8  7 109       
PG13  13356.822510 -22010.227960   5894.831660    518.594255  8  6  6 115       
PG14  21578.060942  10726.035812 -11324.640079     53.698481  9  7  5  87       
PG15   2520.578598 -26294.544996   -498.516360     38.675705  7  5  5  69       
PG16  -9372.614777  11896.162791  21477.584992   -501.823128  7 10  8  93       
PG17  14965.008409   1154.586849 -21496.113199    714.428734  5  6  7  92       
PG18 -19704.733360  -6553.356661  16646.196181   -262.312051 10  9 10 109       
PG19  16796.114750  -7651.434958 -19211.060378    315.618225  5  6  6  63       
PG20  12793.717303  -9637.909131  21197.461103    434.100011  6  5  5 119       
PG21  -7307.348931  16572.644462 -18557.719990    153.867849  4  6  4 107       
PG22 -16401.260421  11737.626399 -16746.407434    479.702956  9  7  8 102       
PG23 -20739.338689 -16483.836782  -2828.626430     23.445175  8  8  7  88       
PG24   2176.265407 -17044.525593 -20514.384465   -185.229538  7  3  2 118       
PG25 -16412.392825 -20536.131448  -5006.629226    442.137089  6  9  7 105       
PG26 -18642.515639   2350.470647  18779.192310    240.908113  7  5  7  95       
PG27 -12680.847349  20382.841247  10646.018397     39.520966  5  7  8 103       
PG28 -25684.563701   4460.543267  -5094.834203     76.628861  8  4  5  95       
PG29  -5485.358678 -19595.675923  16968.316513   -599.065277  6  7  5 102       
PG30  24561.724108   1330.243049  10464.958086   -517.719719  9  6  5  83       
PG31 -24414.563780   9835.335133   4878.911417   -215.912145  6  5  6  92       
PG32 -15730.874453   2042.859220 -21093.832435   -474.174041  7  6  4 115       
*  2023  5 11 23  0  0.00000000
PG01   -755.202358  15405.439262 -21904.175157    186.058464  5  5  7  76       
PG02 -24971.217673   8140.850001   4000.985456   -597.169388  8  5  4 102       
PG03   9094.729351  20537.930483 -14399.734350   -306.004793  7  7  4  96       
PG04    798.413863  24960.882589   8887.660195     39.054061  4  8  8  92       
PG05   6643.918477 -13721.772692  21565.616559   -126.832478  6  7  3 106       
PG06  25517.076376  -4643.138701  -5904.232463    588.104481  8  4  5  92       
PG07  15212.379301   9836.663337  20033.333402    180.530525  7  5  6  75       
PG08  -6368.217492  25340.935002   3308.063705   -121.966993  6  4  8  90       
PG09   8910.064035  18564.095163  16681.057866   -160.929539  5  5  6  75       
PG10 -22361.096865  -9158.862441 -11195.904850    -36.532829  6  3  6 109       
PG11  21779.882221 -12585.214278   8477.964530   -193.470100  7  7  6  84       
PG12  -5054.988118 -20691.437521 -16199.496752   -374.866274 10  9  6 113       
PG13  13280.786670 -21126.277800   8614.982053    518.598905  7  6  6 116       
PG14  22232.613333  11705.106383  -8827.909276     53.709971 10  7  6  90       
PG15   2866.801570 -26114.093156   2311.608653     38.678576  8  6  6  91       
PG16 -11107.249995  10049.748442  21631.663016   -501.820077  7 10  8 102       
PG17  14271.732239   3617.925456 -21680.303017    714.430275  6  6  7  99       
PG18 -17826.003151  -7238.291023  18376.126818   -262.326358 10  9 10 117       
PG19  16185.750003  -5502.549446 -20470.987201    315.622831  5  5  7  71       
PG20  14752.979153  -8277.267618  20468.592936    434.097905  6  6  6 116       
PG21  -9380.398139  17216.791920 -16941.831092    153.867759  5  6  4 108       
PG22 -15938.692329   9685.029707 -18395.961035    479.708882  9  7  8 101       
PG23 -20725.265181 -16744.111636     38.085332     23.447871  8  8  7 118       
PG24   4293.740100 -17780.828440 -19474.664662   -185.242150  7  3  3 123       
PG25 -15740.484032 -20258.242770  -7708.729851    442.139482  6  9  7 117       
PG26 -20171.334507    926.603105  17304.451841    240.907774  8  6  8  98       
PG27 -12609.426540  18960.838319  13067.820736     39.513670  6  7  8 118       
PG28 -25071.696319   3985.893993  -7823.524185     76.632185  7  3  5 112       
PG29  -4810.711300 -21311.505311  14988.611183   -599.066669  7  6  5 116       
PG30  23381.327797   1958.028804  12806.692878   -517.717863  9  7  5  76       
PG31 -24877.953157   9723.725002   2098.233361   -215.912696  6  5  6  94       
PG32 -15267.277138   -394.163117 -21539.013202   -474.182456  7  6  5 118       
EOF
